{
    "links": {
        "self": "http://www.neowsapp.com/rest/v1/neo/3986760?api_key=iIulBulltgU6a56xZRHN4H3l9WmuAYTsLGpBGhQ2"
    },
    "id": "3986760",
    "neo_reference_id": "3986760",
    "name": "(2020 BH1)",
    "designation": "2020 BH1",
    "nasa_jpl_url": "http://ssd.jpl.nasa.gov/sbdb.cgi?sstr=3986760",
    "absolute_magnitude_h": 24.563,
    "estimated_diameter": {
        "kilometers": {
            "estimated_diameter_min": 0.0325053597,
            "estimated_diameter_max": 0.072684194
        },
        "meters": {
            "estimated_diameter_min": 32.5053597269,
            "estimated_diameter_max": 72.6841939824
        },
        "miles": {
            "estimated_diameter_min": 0.0201978879,
            "estimated_diameter_max": 0.0451638503
        },
        "feet": {
            "estimated_diameter_min": 106.6448844064,
            "estimated_diameter_max": 238.4652109854
        }
    },
    "is_potentially_hazardous_asteroid": false,
    "close_approach_data": [
        {
            "close_approach_date": "2020-01-18",
            "close_approach_date_full": "2020-Jan-18 05:13",
            "epoch_date_close_approach": 1579324380000,
            "relative_velocity": {
                "kilometers_per_second": "14.0922777019",
                "kilometers_per_hour": "50732.1997270146",
                "miles_per_hour": "31523.0159914886"
            },
            "miss_distance": {
                "astronomical": "0.0278266646",
                "lunar": "10.8245725294",
                "kilometers": "4162809.753364402",
                "miles": "2586650.0361846676"
            },
            "orbiting_body": "Earth"
        },
        {
            "close_approach_date": "2021-08-20",
            "close_approach_date_full": "2021-Aug-20 05:38",
            "epoch_date_close_approach": 1629437880000,
            "relative_velocity": {
                "kilometers_per_second": "18.9058706552",
                "kilometers_per_hour": "68061.134358644",
                "miles_per_hour": "42290.5420685697"
            },
            "miss_distance": {
                "astronomical": "0.2770661772",
                "lunar": "107.7787429308",
                "kilometers": "41448509.958162564",
                "miles": "25754909.8169648232"
            },
            "orbiting_body": "Earth"
        }
    ],
    "orbital_data": {
        "orbit_id": "5",
        "orbit_determination_date": "2020-01-26 05:55:49",
        "first_observation_date": "2020-01-19",
        "last_observation_date": "2020-01-24",
        "data_arc_in_days": 5,
        "observations_used": 73,
        "orbit_uncertainty": "8",
        "minimum_orbit_intersection": ".0172603",
        "jupiter_tisserand_invariant": "4.371",
        "epoch_osculation": "2458868.5",
        "eccentricity": ".4556662442784005",
        "semi_major_axis": "1.513082958729338",
        "inclination": "13.84899037573481",
        "ascending_node_longitude": "299.07812791",
        "orbital_period": "679.8178080459671",
        "perihelion_distance": ".8236221296434907",
        "perihelion_argument": "113.5615072356581",
        "aphelion_distance": "2.202543787815186",
        "perihelion_time": "2458821.269051815482",
        "mean_anomaly": "25.01132089390159",
        "mean_motion": ".5295536476674026",
        "equinox": "J2000",
        "orbit_class": {
            "orbit_class_type": "APO",
            "orbit_class_description": "Near-Earth asteroid orbits which cross the Earth’s orbit similar to that of 1862 Apollo",
            "orbit_class_range": "a (semi-major axis) > 1.0 AU; q (perihelion) < 1.017 AU"
        }
    },
    "is_sentry_object": false
}